NORAD_CAT_ID,OBJECT_NAME,OBJECT_TYPE,EPOCH,MEAN_MOTION,ECCENTRICITY,INCLINATION,RA_OF_ASC_NODE,ARG_OF_PERICENTER,MEAN_ANOMALY,BSTAR,MEAN_MOTION_DOT,MEAN_MOTION_DDOT,TLE_LINE0,TLE_LINE1,TLE_LINE2,SEMIMAJOR_AXIS,PERIOD,APOGEE,PERIGEE,DECAYED
56811.0,STARLINK-6063,PAYLOAD,2024-03-24 20:00:01,14.96757269,0.0003464,69.9994,306.6923,271.5624,28.8343,-0.0058452,-0.00066436,0.0,0 STARLINK-6063,1 56811U 23078AW  24084.83334491 -.00066436  00000-0 -58452-2 0  9997,2 56811  69.9994 306.6923 0003464 271.5624  28.8343 14.96757269 46859,6955.061,96.208,579.335,574.516,0.0
56811.0,STARLINK-6063,PAYLOAD,2024-03-24 22:00:00,14.96744208,0.000343,69.9993,306.4827,274.0024,115.2916,-0.0050163,-0.00057084,0.0,0 STARLINK-6063,1 56811U 23078AW  24084.91667824 -.00057084  00000-0 -50163-2 0  9995,2 56811  69.9993 306.4827 0003430 274.0024 115.2916 14.96744208  5811,6955.101,96.209,579.352,574.581,0.0
56811.0,STARLINK-6063,PAYLOAD,2024-03-25 12:00:00,14.96685771,0.0003361,69.9992,305.0155,270.1771,21.3423,0.007566,0.00087535,0.0,0 STARLINK-6063,1 56811U 23078AW  24085.50001157  .00087535  00000-0  75660-2 0  9993,2 56811  69.9992 305.0155 0003361 270.1771  21.3423 14.96685771 46957,6955.282,96.213,579.485,574.81,0.0
56811.0,STARLINK-6063,PAYLOAD,2024-03-25 20:00:01,14.9674872,0.0003356,69.9995,304.177,272.988,14.0653,-0.0046238,-0.00052664,0.0,0 STARLINK-6063,1 56811U 23078AW  24085.83334491 -.00052664  00000-0 -46238-2 0  9995,2 56811  69.9995 304.1770 0003356 272.9880  14.0653 14.96748720 47003,6955.087,96.209,579.286,574.618,0.0
56811.0,STARLINK-6063,PAYLOAD,2024-03-25 22:00:00,14.9674172,0.000331,69.9995,303.9674,274.8087,101.1388,-0.0046349,-0.0005278,0.0,0 STARLINK-6063,1 56811U 23078AW  24085.91667824 -.00052780  00000-0 -46349-2 0  9995,2 56811  69.9995 303.9674 0003310 274.8087 101.1388 14.96741720  5654,6955.109,96.209,579.276,574.672,0.0
56811.0,STARLINK-6063,PAYLOAD,2024-03-26 12:00:00,14.96670168,0.0003223,69.9993,302.5,268.1029,10.0397,0.0059178,0.00068229,0.0,0 STARLINK-6063,1 56811U 23078AW  24086.50001157  .00068229  00000-0  59178-2 0  9999,2 56811  69.9993 302.5000 0003223 268.1029  10.0397 14.96670168 47106,6955.331,96.214,579.437,574.954,0.0
56811.0,STARLINK-6063,PAYLOAD,2024-03-26 14:00:01,14.96696007,0.0003221,69.9995,302.2904,267.6865,99.3272,0.0028328,0.00032467,0.0,0 STARLINK-6063,1 56811U 23078AW  24086.58334491  .00032467  00000-0  28328-2 0  9995,2 56811  69.9995 302.2904 0003221 267.6865  99.3272 14.96696007  5755,6955.25,96.212,579.356,574.875,0.0
56811.0,STARLINK-6063,PAYLOAD,2024-03-26 20:00:01,14.96707703,0.0003269,69.9996,301.6614,271.6424,2.0206,-0.00059515,-6.896e-05,0.0,0 STARLINK-6063,1 56811U 23078AW  24086.83334491 -.00006896  00000-0 -59515-3 0  9995,2 56811  69.9996 301.6614 0003269 271.6424   2.0206 14.96707703 47159,6955.214,96.211,579.353,574.806,0.0
56811.0,STARLINK-6063,PAYLOAD,2024-03-26 22:00:00,14.96696357,0.0003243,69.9996,301.4518,273.3508,89.199,0.0018041,0.00020609,0.0,0 STARLINK-6063,1 56811U 23078AW  24086.91667824  .00020609  00000-0  18041-2 0  9997,2 56811  69.9996 301.4518 0003243 273.3508  89.1990 14.96696357  5808,6955.249,96.212,579.37,574.859,0.0
56811.0,STARLINK-6063,PAYLOAD,2024-03-27 07:36:47,14.96711171,0.0002998,69.9987,300.4453,270.7806,89.3008,-4.754e-05,-6.36e-06,0.0,0 STARLINK-6063,1 56811U 23078AW  24087.31721431 -.00000636  00000-0 -47540-4 0  9995,2 56811  69.9987 300.4453 0002998 270.7806  89.3008 14.96711171 46969,6955.203,96.211,579.154,574.983,0.0
56811.0,STARLINK-6063,PAYLOAD,2024-03-27 20:26:42,14.96706743,0.0003051,69.9991,299.1006,270.4585,89.6224,-5.9344e-06,-1.6e-06,0.0,0 STARLINK-6063,1 56811U 23078AW  24087.85187950 -.00000160  00000-0 -59344-5 0  9994,2 56811  69.9991 299.1006 0003051 270.4585  89.6224 14.96706743 47305,6955.217,96.211,579.204,574.96,0.0
56811.0,STARLINK-6063,PAYLOAD,2024-03-27 22:02:56,14.96707178,0.0002988,69.999,298.9324,270.9782,89.1034,-6.945e-07,-1e-06,0.0,0 STARLINK-6063,1 56811U 23078AW  24087.91871194 -.00000100  00000-0 -69450-6 0  9995,2 56811  69.9990 298.9324 0002988 270.9782  89.1034 14.96707178 47055,6955.216,96.211,579.159,575.003,0.0
56811.0,STARLINK-6063,PAYLOAD,2024-03-27 23:39:10,14.9671279,0.000312,69.9987,298.7642,271.3445,88.7356,5.2753e-05,5.12e-06,0.0,0 STARLINK-6063,1 56811U 23078AW  24087.98553894  .00000512  00000-0  52753-4 0  9997,2 56811  69.9987 298.7642 0003120 271.3445  88.7356 14.96712790 47320,6955.198,96.211,579.234,574.893,0.0
56811.0,STARLINK-6063,PAYLOAD,2024-03-28 20:30:14,14.96731196,0.0003907,69.997,296.5782,275.224,84.8473,0.00027845,3.098e-05,0.0,0 STARLINK-6063,1 56811U 23078AW  24088.85433206  .00003098  00000-0  27845-3 0  9993,2 56811  69.9970 296.5782 0003907 275.2240  84.8473 14.96731196 47454,6955.141,96.21,579.724,574.289,0.0
56811.0,STARLINK-6063,PAYLOAD,2024-03-28 22:06:28,14.96735057,0.0003185,69.9971,296.4078,274.3003,85.7791,0.00033178,3.71e-05,0.0,0 STARLINK-6063,1 56811U 23078AW  24088.92115956  .00003710  00000-0  33178-3 0  9997,2 56811  69.9971 296.4078 0003185 274.3003  85.7791 14.96735057 47203,6955.129,96.209,579.21,574.779,0.0
56811.0,STARLINK-6063,PAYLOAD,2024-03-28 23:42:42,14.96735125,0.0002887,69.9977,296.2407,273.4304,86.6524,0.00032919,3.68e-05,0.0,0 STARLINK-6063,1 56811U 23078AW  24088.98799090  .00003680  00000-0  32919-3 0  9998,2 56811  69.9977 296.2407 0002887 273.4304  86.6524 14.96735125 47216,6955.129,96.209,579.002,574.986,0.0
56811.0,STARLINK-6063,PAYLOAD,2024-03-29 20:33:46,14.96731818,0.0002201,69.9995,294.0572,279.231,80.8599,0.00063406,7.176e-05,0.0,0 STARLINK-6063,1 56811U 23078AW  24089.85678930  .00007176  00000-0  63406-3 0  9993,2 56811  69.9995 294.0572 0002201 279.2310  80.8599 14.96731818 47602,6955.14,96.21,578.535,575.474,0.0
56811.0,STARLINK-6063,PAYLOAD,2024-03-29 22:10:00,14.9673502,0.000126,69.9995,293.8857,305.1784,54.9256,0.00084006,9.541e-05,0.0,0 STARLINK-6063,1 56811U 23078AW  24089.92361429  .00009541  00000-0  84006-3 0  9990,2 56811  69.9995 293.8857 0001260 305.1784  54.9256 14.96735020 47356,6955.13,96.209,577.871,576.118,0.0
56811.0,STARLINK-6063,PAYLOAD,2024-03-29 23:46:01,14.96909768,0.0003721,70.0,293.7213,266.3254,93.7478,0.0027575,0.00031773,0.0,0 STARLINK-6063,1 56811U 23078AW  24089.99029508  .00031773  00000-0  27575-2 0  9995,2 56811  70.0000 293.7213 0003721 266.3254  93.7478 14.96909768 47624,6954.588,96.198,579.041,573.866,0.0
56811.0,STARLINK-6063,PAYLOAD,2024-03-30 12:34:46,14.97721384,0.0005816,70.0,292.3719,280.5755,79.4748,0.010446,0.0012484,0.0,0 STARLINK-6063,1 56811U 23078AW  24090.52415092  .00124840  00000-0  10446-1 0  9999,2 56811  70.0000 292.3719 0005816 280.5755  79.4748 14.97721384 47708,6952.076,96.146,577.984,569.897,0.0
56811.0,STARLINK-6063,PAYLOAD,2024-03-30 20:00:01,14.97979903,0.0003309,70.0004,291.5991,270.4602,312.6696,0.03658,0.00457334,0.0,0 STARLINK-6063,1 56811U 23078AW  24090.83334491  .00457334  00000-0  36580-1 0  9990,2 56811  70.0004 291.5991 0003309 270.4602 312.6696 14.97979903 47750,6951.276,96.129,575.441,570.841,0.0
56811.0,STARLINK-6063,PAYLOAD,2024-03-30 22:00:00,14.98091689,0.0003293,70.0005,291.3891,271.2795,41.1176,0.028117,0.00350586,0.0,0 STARLINK-6063,1 56811U 23078AW  24090.91667824  .00350586  00000-0  28117-1 0  9996,2 56811  70.0005 291.3891 0003293 271.2795  41.1176 14.98091689  5840,6950.93,96.122,575.084,570.506,0.0
56811.0,STARLINK-6063,PAYLOAD,2024-03-31 06:00:02,14.98333321,0.0003371,70.0004,290.5488,269.0873,40.7131,-0.0029122,-0.00034674,0.0,0 STARLINK-6063,1 56811U 23078AW  24091.25002315 -.00034674  00000-0 -29122-2 0  9999,2 56811  70.0004 290.5488 0003371 269.0873  40.7131 14.98333321 47812,6950.183,96.107,574.391,569.705,0.0
56811.0,STARLINK-6063,PAYLOAD,2024-03-31 14:00:01,14.98337277,0.000344,70.0007,289.7085,265.4894,41.7154,-0.00054918,-6.641e-05,0.0,0 STARLINK-6063,1 56811U 23078AW  24091.58334491 -.00006641  00000-0 -54918-3 0  9993,2 56811  70.0007 289.7085 0003440 265.4894  41.7154 14.98337277  5698,6950.17,96.107,574.426,569.645,0.0
56811.0,STARLINK-6063,PAYLOAD,2024-03-31 20:00:01,14.98317211,0.0003417,70.0006,289.078,270.5028,304.8178,0.001117,0.00013256,0.0,0 STARLINK-6063,1 56811U 23078AW  24091.83334491  .00013256  00000-0  11170-2 0  9991,2 56811  70.0006 289.0780 0003417 270.5028 304.8178 14.98317211 47907,6950.232,96.108,574.472,569.723,0.0
56811.0,STARLINK-6063,PAYLOAD,2024-03-31 22:00:00,14.98309637,0.0003389,70.0007,288.8678,271.7454,32.9454,0.0031575,0.00037766,0.0,0 STARLINK-6063,1 56811U 23078AW  24091.91667824  .00037766  00000-0  31575-2 0  9992,2 56811  70.0007 288.8678 0003389 271.7454  32.9454 14.98309637  5740,6950.256,96.108,574.476,569.765,0.0
56811.0,STARLINK-6063,PAYLOAD,2024-04-01 14:00:01,14.98347929,0.0003422,70.0007,287.1869,265.2244,34.4135,-0.00050927,-6.167e-05,0.0,0 STARLINK-6063,1 56811U 23078AW  24092.58334491 -.00006167  00000-0 -50927-3 0  9993,2 56811  70.0007 287.1869 0003422 265.2244  34.4135 14.98347929  5690,6950.137,96.106,574.381,569.624,0.0
56811.0,STARLINK-6063,PAYLOAD,2024-04-02 06:00:02,14.98330518,0.0003436,70.0004,285.5057,268.7586,25.9306,-0.0013433,-0.00016085,0.0,0 STARLINK-6063,1 56811U 23078AW  24093.25002315 -.00016085  00000-0 -13433-2 0  9995,2 56811  70.0004 285.5057 0003436 268.7586  25.9306 14.98330518 48115,6950.191,96.107,574.444,569.668,0.0
56811.0,STARLINK-6063,PAYLOAD,2024-04-02 14:00:01,14.98348904,0.0003478,70.0007,284.6654,265.6867,26.4092,-0.00094597,-0.00011368,0.0,0 STARLINK-6063,1 56811U 23078AW  24093.58334491 -.00011368  00000-0 -94597-3 0  9994,2 56811  70.0007 284.6654 0003478 265.6867  26.4092 14.98348904  5743,6950.134,96.106,574.417,569.582,0.0
56811.0,STARLINK-6063,PAYLOAD,2024-04-02 22:00:01,14.98317416,0.0003475,70.0005,283.8248,271.4405,18.216,0.0024171,0.00028858,0.0,0 STARLINK-6063,1 56811U 23078AW  24093.91668981  .00028858  00000-0  24171-2 0  9995,2 56811  70.0005 283.8248 0003475 271.4405  18.2160 14.98317416 48219,6950.232,96.108,574.512,569.682,0.0
